[{"OBJECT_NAME":"STARLINK-36727","OBJECT_ID":"2026-034AB","EPOCH":"2026-03-05T22:00:01.999584","MEAN_MOTION":15.80826847,"ECCENTRICITY":9.503e-5,"INCLINATION":53.1594,"RA_OF_ASC_NODE":230.0434,"ARG_OF_PERICENTER":49.6438,"MEAN_ANOMALY":293.2984,"EPHEMERIS_TYPE":0,"CLASSIFICATION_TYPE":"U","NORAD_CAT_ID":67875,"ELEMENT_SET_NO":999,"REV_AT_EPOCH":325,"BSTAR":0.00030173236,"MEAN_MOTION_DOT":0.00059135,"MEAN_MOTION_DDOT":0},{"OBJECT_NAME":"STARLINK-36743","OBJECT_ID":"2026-034AC","EPOCH":"2026-03-05T22:00:01.999584","MEAN_MOTION":15.80794694,"ECCENTRICITY":9.301e-5,"INCLINATION":53.1598,"RA_OF_ASC_NODE":230.0343,"ARG_OF_PERICENTER":44.0239,"MEAN_ANOMALY":303.2033,"EPHEMERIS_TYPE":0,"CLASSIFICATION_TYPE":"U","NORAD_CAT_ID":67876,"ELEMENT_SET_NO":999,"REV_AT_EPOCH":325,"BSTAR":0.00056487156,"MEAN_MOTION_DOT":0.00111836,"MEAN_MOTION_DDOT":0},{"OBJECT_NAME":"STARLINK-36784","OBJECT_ID":"2026-034AD","EPOCH":"2026-03-05T22:00:01.999584","MEAN_MOTION":15.808458,"ECCENTRICITY":9.244e-5,"INCLINATION":53.1597,"RA_OF_ASC_NODE":230.0258,"ARG_OF_PERICENTER":30.8002,"MEAN_ANOMALY":320.6756,"EPHEMERIS_TYPE":0,"CLASSIFICATION_TYPE":"U","NORAD_CAT_ID":67877,"ELEMENT_SET_NO":999,"REV_AT_EPOCH":325,"BSTAR":0.00020235429,"MEAN_MOTION_DOT":0.00039371,"MEAN_MOTION_DDOT":0},{"OBJECT_NAME":"STARLINK-36689","OBJECT_ID":"2026-034AE","EPOCH":"2026-03-05T22:00:01.999584","MEAN_MOTION":15.80840246,"ECCENTRICITY":0.00011008,"INCLINATION":53.1595,"RA_OF_ASC_NODE":230.017,"ARG_OF_PERICENTER":71.2226,"MEAN_ANOMALY":284.5302,"EPHEMERIS_TYPE":0,"CLASSIFICATION_TYPE":"U","NORAD_CAT_ID":67878,"ELEMENT_SET_NO":999,"REV_AT_EPOCH":325,"BSTAR":0.00017649795,"MEAN_MOTION_DOT":0.00034221,"MEAN_MOTION_DDOT":0},{"OBJECT_NAME":"STARLINK-36818","OBJECT_ID":"2026-035A","EPOCH":"2026-03-05T22:00:01.999584","MEAN_MOTION":15.95904682,"ECCENTRICITY":0.00013367,"INCLINATION":97.2761,"RA_OF_ASC_NODE":356.963,"ARG_OF_PERICENTER":105.2197,"MEAN_ANOMALY":71.0951,"EPHEMERIS_TYPE":0,"CLASSIFICATION_TYPE":"U","NORAD_CAT_ID":67879,"ELEMENT_SET_NO":999,"REV_AT_EPOCH":315,"BSTAR":-0.0027340853,"MEAN_MOTION_DOT":-0.01101159,"MEAN_MOTION_DDOT":0.00037471788},{"OBJECT_NAME":"STARLINK-36821","OBJECT_ID":"2026-035B","EPOCH":"2026-03-05T22:00:01.999584","MEAN_MOTION":15.96050997,"ECCENTRICITY":0.00013138,"INCLINATION":97.2756,"RA_OF_ASC_NODE":356.9663,"ARG_OF_PERICENTER":104.0005,"MEAN_ANOMALY":79.4694,"EPHEMERIS_TYPE":0,"CLASSIFICATION_TYPE":"U","NORAD_CAT_ID":67880,"ELEMENT_SET_NO":999,"REV_AT_EPOCH":315,"BSTAR":-0.0027227265,"MEAN_MOTION_DOT":-0.01105212,"MEAN_MOTION_DDOT":0.00037786231},{"OBJECT_NAME":"STARLINK-36808","OBJECT_ID":"2026-035C","EPOCH":"2026-03-05T22:00:01.999584","MEAN_MOTION":15.95971329,"ECCENTRICITY":0.00012682,"INCLINATION":97.2758,"RA_OF_ASC_NODE":356.9642,"ARG_OF_PERICENTER":93.4781,"MEAN_ANOMALY":85.6192,"EPHEMERIS_TYPE":0,"CLASSIFICATION_TYPE":"U","NORAD_CAT_ID":67881,"ELEMENT_SET_NO":999,"REV_AT_EPOCH":315,"BSTAR":-0.0026945002,"MEAN_MOTION_DOT":-0.01089203,"MEAN_MOTION_DDOT":0.00036747705},{"OBJECT_NAME":"STARLINK-36817","OBJECT_ID":"2026-035D","EPOCH":"2026-03-05T22:00:01.999584","MEAN_MOTION":15.962,"ECCENTRICITY":0.00012528,"INCLINATION":97.2747,"RA_OF_ASC_NODE":356.9694,"ARG_OF_PERICENTER":97.2742,"MEAN_ANOMALY":94.7761,"EPHEMERIS_TYPE":0,"CLASSIFICATION_TYPE":"U","NORAD_CAT_ID":67882,"ELEMENT_SET_NO":999,"REV_AT_EPOCH":315,"BSTAR":-0.0027175093,"MEAN_MOTION_DOT":-0.01111921,"MEAN_MOTION_DDOT":0.00038272831},{"OBJECT_NAME":"STARLINK-36856","OBJECT_ID":"2026-035E","EPOCH":"2026-03-05T22:00:01.999584","MEAN_MOTION":15.96126798,"ECCENTRICITY":0.0001188,"INCLINATION":97.2753,"RA_OF_ASC_NODE":356.9678,"ARG_OF_PERICENTER":101.0875,"MEAN_ANOMALY":86.9386,"EPHEMERIS_TYPE":0,"CLASSIFICATION_TYPE":"U","NORAD_CAT_ID":67883,"ELEMENT_SET_NO":999,"REV_AT_EPOCH":315,"BSTAR":-0.0027251624,"MEAN_MOTION_DOT":-0.01110662,"MEAN_MOTION_DDOT":0.00038162873},{"OBJECT_NAME":"STARLINK-36842","OBJECT_ID":"2026-035F","EPOCH":"2026-03-05T22:00:01.999584","MEAN_MOTION":15.96266252,"ECCENTRICITY":0.00012487,"INCLINATION":97.2746,"RA_OF_ASC_NODE":356.9709,"ARG_OF_PERICENTER":89.3245,"MEAN_ANOMALY":106.5118,"EPHEMERIS_TYPE":0,"CLASSIFICATION_TYPE":"U","NORAD_CAT_ID":67884,"ELEMENT_SET_NO":999,"REV_AT_EPOCH":315,"BSTAR":-0.0026842989,"MEAN_MOTION_DOT":-0.01102348,"MEAN_MOTION_DDOT":0.00037691438},{"OBJECT_NAME":"STARLINK-36826","OBJECT_ID":"2026-035G","EPOCH":"2026-03-05T22:00:01.999584","MEAN_MOTION":15.96354022,"ECCENTRICITY":0.00012754,"INCLINATION":97.2745,"RA_OF_ASC_NODE":356.9724,"ARG_OF_PERICENTER":101.7009,"MEAN_ANOMALY":97.1948,"EPHEMERIS_TYPE":0,"CLASSIFICATION_TYPE":"U","NORAD_CAT_ID":67885,"ELEMENT_SET_NO":999,"REV_AT_EPOCH":315,"BSTAR":-0.0027010151,"MEAN_MOTION_DOT":-0.01114383,"MEAN_MOTION_DDOT":0.00038492775},{"OBJECT_NAME":"STARLINK-36390","OBJECT_ID":"2026-035H","EPOCH":"2026-03-05T22:00:01.999584","MEAN_MOTION":15.96431779,"ECCENTRICITY":0.00011798,"INCLINATION":97.2741,"RA_OF_ASC_NODE":356.974,"ARG_OF_PERICENTER":97.4107,"MEAN_ANOMALY":106.0211,"EPHEMERIS_TYPE":0,"CLASSIFICATION_TYPE":"U","NORAD_CAT_ID":67886,"ELEMENT_SET_NO":999,"REV_AT_EPOCH":319,"BSTAR":-0.0026897297,"MEAN_MOTION_DOT":-0.01114388,"MEAN_MOTION_DDOT":0.00038525104},{"OBJECT_NAME":"STARLINK-36368","OBJECT_ID":"2026-035J","EPOCH":"2026-03-05T22:00:01.999584","MEAN_MOTION":15.96511827,"ECCENTRICITY":0.00012027,"INCLINATION":97.2739,"RA_OF_ASC_NODE":356.9758,"ARG_OF_PERICENTER":99.3586,"MEAN_ANOMALY":108.4041,"EPHEMERIS_TYPE":0,"CLASSIFICATION_TYPE":"U","NORAD_CAT_ID":67887,"ELEMENT_SET_NO":999,"REV_AT_EPOCH":315,"BSTAR":-0.0027041806,"MEAN_MOTION_DOT":-0.01125148,"MEAN_MOTION_DDOT":0.00039250196},{"OBJECT_NAME":"STARLINK-36801","OBJECT_ID":"2026-035K","EPOCH":"2026-03-05T22:00:01.999584","MEAN_MOTION":15.96610431,"ECCENTRICITY":0.00012463,"INCLINATION":97.2736,"RA_OF_ASC_NODE":356.9776,"ARG_OF_PERICENTER":101.9909,"MEAN_ANOMALY":109.9464,"EPHEMERIS_TYPE":0,"CLASSIFICATION_TYPE":"U","NORAD_CAT_ID":67888,"ELEMENT_SET_NO":999,"REV_AT_EPOCH":315,"BSTAR":-0.0028013331,"MEAN_MOTION_DOT":-0.01171397,"MEAN_MOTION_DDOT":0.00042333366},{"OBJECT_NAME":"STARLINK-36372","OBJECT_ID":"2026-035L","EPOCH":"2026-03-05T22:00:01.999584","MEAN_MOTION":15.96789121,"ECCENTRICITY":0.00012581,"INCLINATION":97.2729,"RA_OF_ASC_NODE":356.9807,"ARG_OF_PERICENTER":110.5527,"MEAN_ANOMALY":109.4383,"EPHEMERIS_TYPE":0,"CLASSIFICATION_TYPE":"U","NORAD_CAT_ID":67889,"ELEMENT_SET_NO":999,"REV_AT_EPOCH":315,"BSTAR":-0.0029438797,"MEAN_MOTION_DOT":-0.01242306,"MEAN_MOTION_DDOT":0.00047286342},{"OBJECT_NAME":"STARLINK-36363","OBJECT_ID":"2026-035M","EPOCH":"2026-03-05T22:00:01.999584","MEAN_MOTION":15.96710921,"ECCENTRICITY":0.00013275,"INCLINATION":97.2735,"RA_OF_ASC_NODE":356.9797,"ARG_OF_PERICENTER":105.8131,"MEAN_ANOMALY":110.8064,"EPHEMERIS_TYPE":0,"CLASSIFICATION_TYPE":"U","NORAD_CAT_ID":67890,"ELEMENT_SET_NO":999,"REV_AT_EPOCH":315,"BSTAR":-0.0029495831,"MEAN_MOTION_DOT":-0.0123948,"MEAN_MOTION_DDOT":0.00047048412}]
